LAOSAT 1                
1 41034U 15067A   26194.01612321 -.00000345  00000+0  00000+0 0  9990
2 41034   0.0369 144.4700 0002144 274.3266   6.4186  1.00269466 39116
TELSTAR 12V             
1 41036U 15068A   26194.13034052  .00000000  00000+0  00000+0 0  9992
2 41036   0.0260  45.5656 0002074  64.3249 213.0570  1.00269877 38881
ELEKTRO-L 2             
1 41105U 15074A   26193.98778307 -.00000125  00000+0  00000+0 0  9995
2 41105   6.7552  70.2019 0000943 215.4440 346.3207  1.00272232 38761
COSMOS 2513             
1 41121U 15075A   26194.07790412 -.00000139  00000+0  00000+0 0  9991
2 41121   0.0633 103.1119 0002659 342.9533 313.1741  1.00268860 38800
EXPRESS-AMU1            
1 41191U 15082A   26194.14039391  .00000153  00000+0  00000+0 0  9991
2 41191   0.0166  70.7196 0002301  51.6122 255.3157  1.00272465 38527
GAOFEN-4                
1 41194U 15083A   26194.08030728 -.00000337  00000+0  00000+0 0  9998
2 41194   0.4205  83.8159 0003975 125.7053 216.0326  1.00272713 38782
BELINTERSAT-1           
1 41238U 16001A   26194.14351394  .00000105  00000+0  00000+0 0  9992
2 41238   0.0603 252.0831 0001910 177.3232 324.7673  1.00272312 38490
IRNSS-1E                
1 41241U 16003A   26191.58253116 -.00000316  00000+0  00000+0 0  9991
2 41241  33.2836  59.4106 0019285 178.7449  11.7354  1.00267797 38314
EUTELSAT 9B             
1 41310U 16005A   26194.13502057  .00000059  00000+0  00000+0 0  9998
2 41310   0.0313  56.0767 0001005  44.9552 247.5757  1.00269914 38374
SES-9                   
1 41380U 16013A   26194.01213652 -.00000346  00000+0  00000+0 0  9991
2 41380   0.0166 328.5658 0001957 133.2042 301.7971  1.00268039 37697
EUTELSAT 65 WEST A      
1 41382U 16014A   26194.19298801 -.00000278  00000+0  00000+0 0  9996
2 41382   0.0637 318.9944 0002015 155.6883 180.6784  1.00269897 37789
IRNSS-1F                
1 41384U 16015A   26193.92589564  .00000151  00000+0  00000+0 0  9997
2 41384   5.4118  96.1862 0017664 180.2044  20.2931  1.00265108 37927
BEIDOU-2 IGSO-6         
1 41434U 16021A   26177.11016981 -.00000145  00000+0  00000+0 0  9995
2 41434  60.2385  37.9495 0057558 231.0163 137.2672  1.00258926 37578
IRNSS-1G                
1 41469U 16027A   26193.65988704 -.00000339  00000+0  00000+0 0  9992
2 41469   5.2566  96.8853 0005969  10.0923 190.8085  1.00272402 37439
JCSAT-2B                
1 41471U 16028A   26194.20253000 -.00000168  00000+0  00000+0 0  9992
2 41471   0.0176  35.1333 0000717  81.1522  41.7059  1.00269585 37399
THAICOM 8               
1 41552U 16031A   26194.14880064 -.00000123  00000+0  00000+0 0  9996
2 41552   0.0721  47.4270 0002940  26.4083 349.2490  1.00270473 36971
INTELSAT 31 (IS-31)     
1 41581U 16035A   26194.11445328 -.00000153  00000+0  00000+0 0  9992
2 41581   0.0158 289.5231 0001150 353.5999 314.0289  1.00271575 36942
BEIDOU-2 G7             
1 41586U 16037A   26194.08388414 -.00000357  00000+0  00000+0 0  9993
2 41586   1.7807  69.4800 0005987 359.3275   2.8813  1.00274588  7159
ABS-2A (MONGOLSAT-1)    
1 41588U 16038A   26194.19087578 -.00000085  00000+0  00000+0 0  9993
2 41588   0.0135  26.4795 0001219  29.2123  18.7891  1.00268848 36967
EUTELSAT 117 WEST B     
1 41589U 16038B   26193.39142009 -.00000010  00000+0  00000+0 0  9994
2 41589   0.0123 120.2937 0000259 354.1008 199.8112  1.00270256 36919
BRISAT                  
1 41591U 16039A   26194.20253000 -.00000199  00000+0  00000+0 0  9991
2 41591   0.0157 356.1510 0001881 119.3899  38.9472  1.00270201 36874
ECHOSTAR 18             
1 41592U 16039B   26193.83594097 -.00000283  00000+0  00000+0 0  9998
2 41592   0.0183  33.0723 0001361  89.6553  47.5635  1.00270514 36885
MUOS-5                  
1 41622U 16041A   26194.11263325 -.00000129  00000+0  00000+0 0  9993
2 41622   2.1495 302.1616 0199464 260.6404  23.5963  1.00271729 37346
TIANTONG-1 1            
1 41725U 16048A   26194.08206413 -.00000322  00000+0  00000+0 0  9990
2 41725   3.8977  43.6079 0004932  57.7492 320.5424  1.00269709 36537
JCSAT-16                
1 41729U 16050A   26194.16180068 -.00000253  00000+0  00000+0 0  9996
2 41729   0.0178  38.0937 0000857  92.8636   2.2759  1.00270350 36333
USA 270                 
1 41744U 16052A   26192.47641677 -.00000349  00000+0  00000+0 0  9991
2 41744   4.2578  76.8776 0009314 101.3149  48.8838  1.00269374 28376
USA 271                 
1 41745U 16052B   26188.73473646 -.00000278  00000+0  00000+0 0  9996
2 41745   4.2217  76.9947 0010955 166.6184  44.5685  1.00271212 28124
INTELSAT 36 (IS-36)     
1 41747U 16053A   26194.14680728 -.00000026  00000+0  00000+0 0  9993
2 41747   0.0102  18.5428 0002514 322.1017  71.7181  1.00270053 36219
INSAT-3DR               
1 41752U 16054A   26194.19087578 -.00000079  00000+0  00000+0 0  9997
2 41752   0.0647  88.7637 0010627 181.1898 163.8347  1.00270603 36076
GSAT-18                 
1 41793U 16060A   26194.14767396 -.00000079  00000+0  00000+0 0  9997
2 41793   0.0301  89.4771 0005220 348.6128 340.0669  1.00271087 35784
SKY MUSTER 2 (NBN1B)    
1 41794U 16060B   26194.01898322  .00000000  00000+0  00000+0 0  9991
2 41794   0.0220  41.0540 0001408  79.3766 322.1044  1.00268081 35770
HIMAWARI-9              
1 41836U 16064A   26193.94730854 -.00000276  00000+0  00000+0 0  9994
2 41836   0.0068 109.6603 0002190  67.6348 235.3168  1.00271956 35466
