OBJECT_NAME,OBJECT_ID,EPOCH,MEAN_MOTION,ECCENTRICITY,INCLINATION,RA_OF_ASC_NODE,ARG_OF_PERICENTER,MEAN_ANOMALY,EPHEMERIS_TYPE,CLASSIFICATION_TYPE,NORAD_CAT_ID,ELEMENT_SET_NO,REV_AT_EPOCH,BSTAR,MEAN_MOTION_DOT,MEAN_MOTION_DDOT
LAOSAT 1,2015-067A,2026-07-13T00:23:13.045344,1.00269466,.0002144,0.0369,144.4700,274.3266,6.4186,0,U,41034,999,3911,0,-.345E-5,0
TELSTAR 12V,2015-068A,2026-07-13T03:07:41.420928,1.00269877,.0002074,0.0260,45.5656,64.3249,213.0570,0,U,41036,999,3888,0,0,0
ELEKTRO-L 2,2015-074A,2026-07-12T23:42:24.457248,1.00272232,.0000943,6.7552,70.2019,215.4440,346.3207,0,U,41105,999,3876,0,-.125E-5,0
COSMOS 2513,2015-075A,2026-07-13T01:52:10.915968,1.00268860,.0002659,0.0633,103.1119,342.9533,313.1741,0,U,41121,999,3880,0,-.139E-5,0
EXPRESS-AMU1,2015-082A,2026-07-13T03:22:10.033824,1.00272465,.0002301,0.0166,70.7196,51.6122,255.3157,0,U,41191,999,3852,0,.153E-5,0
GAOFEN-4,2015-083A,2026-07-13T01:55:38.548992,1.00272713,.0003975,0.4205,83.8159,125.7053,216.0326,0,U,41194,999,3878,0,-.337E-5,0
BELINTERSAT-1,2016-001A,2026-07-13T03:26:39.604416,1.00272312,.000191,0.0603,252.0831,177.3232,324.7673,0,U,41238,999,3849,0,.105E-5,0
IRNSS-1E,2016-003A,2026-07-10T13:58:50.692224,1.00267797,.0019285,33.2836,59.4106,178.7449,11.7354,0,U,41241,999,3831,0,-.316E-5,0
EUTELSAT 9B,2016-005A,2026-07-13T03:14:25.777248,1.00269914,.0001005,0.0313,56.0767,44.9552,247.5757,0,U,41310,999,3837,0,.59E-6,0
SES-9,2016-013A,2026-07-13T00:17:28.595328,1.00268039,.0001957,0.0166,328.5658,133.2042,301.7971,0,U,41380,999,3769,0,-.346E-5,0
EUTELSAT 65 WEST A,2016-014A,2026-07-13T04:37:54.164064,1.00269897,.0002015,0.0637,318.9944,155.6883,180.6784,0,U,41382,999,3778,0,-.278E-5,0
IRNSS-1F,2016-015A,2026-07-12T22:13:17.383296,1.00265108,.0017664,5.4118,96.1862,180.2044,20.2931,0,U,41384,999,3792,0,.151E-5,0
BEIDOU-2 IGSO-6,2016-021A,2026-06-26T02:38:38.671584,1.00258926,.0057558,60.2385,37.9495,231.0163,137.2672,0,U,41434,999,3757,0,-.145E-5,0
IRNSS-1G,2016-027A,2026-07-12T15:50:14.240256,1.00272402,.0005969,5.2566,96.8853,10.0923,190.8085,0,U,41469,999,3743,0,-.339E-5,0
JCSAT-2B,2016-028A,2026-07-13T04:51:38.592000,1.00269585,.0000717,0.0176,35.1333,81.1522,41.7059,0,U,41471,999,3739,0,-.168E-5,0
THAICOM 8,2016-031A,2026-07-13T03:34:16.375296,1.00270473,.000294,0.0721,47.4270,26.4083,349.2490,0,U,41552,999,3697,0,-.123E-5,0
INTELSAT 31 (IS-31),2016-035A,2026-07-13T02:44:48.763392,1.00271575,.000115,0.0158,289.5231,353.5999,314.0289,0,U,41581,999,3694,0,-.153E-5,0
BEIDOU-2 G7,2016-037A,2026-07-13T02:00:47.589696,1.00274588,.0005987,1.7807,69.4800,359.3275,2.8813,0,U,41586,999,715,0,-.357E-5,0
ABS-2A (MONGOLSAT-1),2016-038A,2026-07-13T04:34:51.667392,1.00268848,.0001219,0.0135,26.4795,29.2123,18.7891,0,U,41588,999,3696,0,-.85E-6,0
EUTELSAT 117 WEST B,2016-038B,2026-07-12T09:23:38.695776,1.00270256,.00002597,0.0123,120.2937,354.1008,199.8112,0,U,41589,999,3691,0,-.1E-6,0
BRISAT,2016-039A,2026-07-13T04:51:38.592000,1.00270201,.0001881,0.0157,356.1510,119.3899,38.9472,0,U,41591,999,3687,0,-.199E-5,0
ECHOSTAR 18,2016-039B,2026-07-12T20:03:45.299808,1.00270514,.0001361,0.0183,33.0723,89.6553,47.5635,0,U,41592,999,3688,0,-.283E-5,0
MUOS-5,2016-041A,2026-07-13T02:42:11.512800,1.00271729,.0199464,2.1495,302.1616,260.6404,23.5963,0,U,41622,999,3734,0,-.129E-5,0
TIANTONG-1 1,2016-048A,2026-07-13T01:58:10.340832,1.00269709,.0004932,3.8977,43.6079,57.7492,320.5424,0,U,41725,999,3653,0,-.322E-5,0
JCSAT-16,2016-050A,2026-07-13T03:52:59.578752,1.00270350,.0000857,0.0178,38.0937,92.8636,2.2759,0,U,41729,999,3633,0,-.253E-5,0
USA 270,2016-052A,2026-07-11T11:26:02.408928,1.00269374,.0009314,4.2578,76.8776,101.3149,48.8838,0,U,41744,999,2837,0,-.349E-5,0
USA 271,2016-052B,2026-07-07T17:38:01.230144,1.00271212,.0010955,4.2217,76.9947,166.6184,44.5685,0,U,41745,999,2812,0,-.278E-5,0
INTELSAT 36 (IS-36),2016-053A,2026-07-13T03:31:24.148992,1.00270053,.0002514,0.0102,18.5428,322.1017,71.7181,0,U,41747,999,3621,0,-.26E-6,0
INSAT-3DR,2016-054A,2026-07-13T04:34:51.667392,1.00270603,.0010627,0.0647,88.7637,181.1898,163.8347,0,U,41752,999,3607,0,-.79E-6,0
GSAT-18,2016-060A,2026-07-13T03:32:39.030144,1.00271087,.000522,0.0301,89.4771,348.6128,340.0669,0,U,41793,999,3578,0,-.79E-6,0
SKY MUSTER 2 (NBN1B),2016-060B,2026-07-13T00:27:20.150208,1.00268081,.0001408,0.0220,41.0540,79.3766,322.1044,0,U,41794,999,3577,0,0,0
HIMAWARI-9,2016-064A,2026-07-12T22:44:07.457856,1.00271956,.000219,0.0068,109.6603,67.6348,235.3168,0,U,41836,999,3546,0,-.276E-5,0
